ORBCOMM FM05            
1 25117U 97084F   24314.81783670  .00011223  00000+0  32612-2 0  9992
2 25117  45.0159 340.1857 0003111 245.2591 114.7936 14.44400839408879
ORBCOMM FM06            
1 25118U 97084G   24315.48443895  .00008633  00000+0  25111-2 0  9996
2 25118  45.0149 337.0104 0002825 266.5248 241.7986 14.44557671409903
ORBCOMM FM07            
1 25119U 97084H   24315.46003915  .00008176  00000+0  23868-2 0  9999
2 25119  45.0146 337.7994 0003341 234.2351 125.8190 14.44432709409897
ORBCOMM FM03            
1 25158U 98007B   24315.50531646  .00005513  00000+0  20155-2 0  9998
2 25158 107.9663  46.6822 0048773 270.4800  89.0751 14.33349428392839
ORBCOMM FM04            
1 25159U 98007C   24315.52925528  .00006026  00000+0  21917-2 0  9994
2 25159 107.9648  49.7976 0044436 268.0676  91.5374 14.33621198392985
ORBCOMM FM17            
1 25413U 98046A   24314.91382727  .00005849  00000+0  21174-2 0  9997
2 25413  44.9928 211.8025 0001451 197.0006 163.0792 14.34172985371683
ORBCOMM FM18            
1 25414U 98046B   24314.88434906  .00007442  00000+0  25180-2 0  9993
2 25414  44.9915 134.9297 0004535 242.9001 117.1384 14.37274674372686
ORBCOMM FM19            
1 25415U 98046C   24315.50291995  .00006660  00000+0  22664-2 0  9998
2 25415  44.9922 133.6640 0003509 233.7986 153.7790 14.37109757372937
