<?xml version="1.0" encoding="UTF-8"?>
<ndm xmlns:xsi="http://www.w3.org/2001/XMLSchema-instance" xsi:noNamespaceSchemaLocation="https://sanaregistry.org/r/ndmxml_unqualified/ndmxml-2.0.0-master-2.0.xsd">
<omm id="CCSDS_OMM_VERS" version="2.0">
<header><CREATION_DATE/><ORIGINATOR/></header><body><segment><metadata><OBJECT_NAME>ORBCOMM FM05</OBJECT_NAME><OBJECT_ID>1997-084F</OBJECT_ID><CENTER_NAME>EARTH</CENTER_NAME><REF_FRAME>TEME</REF_FRAME><TIME_SYSTEM>UTC</TIME_SYSTEM><MEAN_ELEMENT_THEORY>SGP4</MEAN_ELEMENT_THEORY></metadata><data><meanElements><EPOCH>2024-11-09T19:37:41.090880</EPOCH><MEAN_MOTION>14.44400839</MEAN_MOTION><ECCENTRICITY>.0003111</ECCENTRICITY><INCLINATION>45.0159</INCLINATION><RA_OF_ASC_NODE>340.1857</RA_OF_ASC_NODE><ARG_OF_PERICENTER>245.2591</ARG_OF_PERICENTER><MEAN_ANOMALY>114.7936</MEAN_ANOMALY></meanElements><tleParameters><EPHEMERIS_TYPE>0</EPHEMERIS_TYPE><CLASSIFICATION_TYPE>U</CLASSIFICATION_TYPE><NORAD_CAT_ID>25117</NORAD_CAT_ID><ELEMENT_SET_NO>999</ELEMENT_SET_NO><REV_AT_EPOCH>40887</REV_AT_EPOCH><BSTAR>.32612E-2</BSTAR><MEAN_MOTION_DOT>.11223E-3</MEAN_MOTION_DOT><MEAN_MOTION_DDOT>0</MEAN_MOTION_DDOT></tleParameters></data></segment></body></omm>
<omm id="CCSDS_OMM_VERS" version="2.0">
<header><CREATION_DATE/><ORIGINATOR/></header><body><segment><metadata><OBJECT_NAME>ORBCOMM FM06</OBJECT_NAME><OBJECT_ID>1997-084G</OBJECT_ID><CENTER_NAME>EARTH</CENTER_NAME><REF_FRAME>TEME</REF_FRAME><TIME_SYSTEM>UTC</TIME_SYSTEM><MEAN_ELEMENT_THEORY>SGP4</MEAN_ELEMENT_THEORY></metadata><data><meanElements><EPOCH>2024-11-10T11:37:35.525280</EPOCH><MEAN_MOTION>14.44557671</MEAN_MOTION><ECCENTRICITY>.0002825</ECCENTRICITY><INCLINATION>45.0149</INCLINATION><RA_OF_ASC_NODE>337.0104</RA_OF_ASC_NODE><ARG_OF_PERICENTER>266.5248</ARG_OF_PERICENTER><MEAN_ANOMALY>241.7986</MEAN_ANOMALY></meanElements><tleParameters><EPHEMERIS_TYPE>0</EPHEMERIS_TYPE><CLASSIFICATION_TYPE>U</CLASSIFICATION_TYPE><NORAD_CAT_ID>25118</NORAD_CAT_ID><ELEMENT_SET_NO>999</ELEMENT_SET_NO><REV_AT_EPOCH>40990</REV_AT_EPOCH><BSTAR>.25111E-2</BSTAR><MEAN_MOTION_DOT>.8633E-4</MEAN_MOTION_DOT><MEAN_MOTION_DDOT>0</MEAN_MOTION_DDOT></tleParameters></data></segment></body></omm>
<omm id="CCSDS_OMM_VERS" version="2.0">
<header><CREATION_DATE/><ORIGINATOR/></header><body><segment><metadata><OBJECT_NAME>ORBCOMM FM07</OBJECT_NAME><OBJECT_ID>1997-084H</OBJECT_ID><CENTER_NAME>EARTH</CENTER_NAME><REF_FRAME>TEME</REF_FRAME><TIME_SYSTEM>UTC</TIME_SYSTEM><MEAN_ELEMENT_THEORY>SGP4</MEAN_ELEMENT_THEORY></metadata><data><meanElements><EPOCH>2024-11-10T11:02:27.382560</EPOCH><MEAN_MOTION>14.44432709</MEAN_MOTION><ECCENTRICITY>.0003341</ECCENTRICITY><INCLINATION>45.0146</INCLINATION><RA_OF_ASC_NODE>337.7994</RA_OF_ASC_NODE><ARG_OF_PERICENTER>234.2351</ARG_OF_PERICENTER><MEAN_ANOMALY>125.8190</MEAN_ANOMALY></meanElements><tleParameters><EPHEMERIS_TYPE>0</EPHEMERIS_TYPE><CLASSIFICATION_TYPE>U</CLASSIFICATION_TYPE><NORAD_CAT_ID>25119</NORAD_CAT_ID><ELEMENT_SET_NO>999</ELEMENT_SET_NO><REV_AT_EPOCH>40989</REV_AT_EPOCH><BSTAR>.23868E-2</BSTAR><MEAN_MOTION_DOT>.8176E-4</MEAN_MOTION_DOT><MEAN_MOTION_DDOT>0</MEAN_MOTION_DDOT></tleParameters></data></segment></body></omm>
<omm id="CCSDS_OMM_VERS" version="2.0">
<header><CREATION_DATE/><ORIGINATOR/></header><body><segment><metadata><OBJECT_NAME>ORBCOMM FM03</OBJECT_NAME><OBJECT_ID>1998-007B</OBJECT_ID><CENTER_NAME>EARTH</CENTER_NAME><REF_FRAME>TEME</REF_FRAME><TIME_SYSTEM>UTC</TIME_SYSTEM><MEAN_ELEMENT_THEORY>SGP4</MEAN_ELEMENT_THEORY></metadata><data><meanElements><EPOCH>2024-11-10T12:07:39.342144</EPOCH><MEAN_MOTION>14.33349428</MEAN_MOTION><ECCENTRICITY>.0048773</ECCENTRICITY><INCLINATION>107.9663</INCLINATION><RA_OF_ASC_NODE>46.6822</RA_OF_ASC_NODE><ARG_OF_PERICENTER>270.4800</ARG_OF_PERICENTER><MEAN_ANOMALY>89.0751</MEAN_ANOMALY></meanElements><tleParameters><EPHEMERIS_TYPE>0</EPHEMERIS_TYPE><CLASSIFICATION_TYPE>U</CLASSIFICATION_TYPE><NORAD_CAT_ID>25158</NORAD_CAT_ID><ELEMENT_SET_NO>999</ELEMENT_SET_NO><REV_AT_EPOCH>39283</REV_AT_EPOCH><BSTAR>.20155E-2</BSTAR><MEAN_MOTION_DOT>.5513E-4</MEAN_MOTION_DOT><MEAN_MOTION_DDOT>0</MEAN_MOTION_DDOT></tleParameters></data></segment></body></omm>
<omm id="CCSDS_OMM_VERS" version="2.0">
<header><CREATION_DATE/><ORIGINATOR/></header><body><segment><metadata><OBJECT_NAME>ORBCOMM FM04</OBJECT_NAME><OBJECT_ID>1998-007C</OBJECT_ID><CENTER_NAME>EARTH</CENTER_NAME><REF_FRAME>TEME</REF_FRAME><TIME_SYSTEM>UTC</TIME_SYSTEM><MEAN_ELEMENT_THEORY>SGP4</MEAN_ELEMENT_THEORY></metadata><data><meanElements><EPOCH>2024-11-10T12:42:07.656192</EPOCH><MEAN_MOTION>14.33621198</MEAN_MOTION><ECCENTRICITY>.0044436</ECCENTRICITY><INCLINATION>107.9648</INCLINATION><RA_OF_ASC_NODE>49.7976</RA_OF_ASC_NODE><ARG_OF_PERICENTER>268.0676</ARG_OF_PERICENTER><MEAN_ANOMALY>91.5374</MEAN_ANOMALY></meanElements><tleParameters><EPHEMERIS_TYPE>0</EPHEMERIS_TYPE><CLASSIFICATION_TYPE>U</CLASSIFICATION_TYPE><NORAD_CAT_ID>25159</NORAD_CAT_ID><ELEMENT_SET_NO>999</ELEMENT_SET_NO><REV_AT_EPOCH>39298</REV_AT_EPOCH><BSTAR>.21917E-2</BSTAR><MEAN_MOTION_DOT>.6026E-4</MEAN_MOTION_DOT><MEAN_MOTION_DDOT>0</MEAN_MOTION_DDOT></tleParameters></data></segment></body></omm>
<omm id="CCSDS_OMM_VERS" version="2.0">
<header><CREATION_DATE/><ORIGINATOR/></header><body><segment><metadata><OBJECT_NAME>ORBCOMM FM17</OBJECT_NAME><OBJECT_ID>1998-046A</OBJECT_ID><CENTER_NAME>EARTH</CENTER_NAME><REF_FRAME>TEME</REF_FRAME><TIME_SYSTEM>UTC</TIME_SYSTEM><MEAN_ELEMENT_THEORY>SGP4</MEAN_ELEMENT_THEORY></metadata><data><meanElements><EPOCH>2024-11-09T21:55:54.676128</EPOCH><MEAN_MOTION>14.34172985</MEAN_MOTION><ECCENTRICITY>.0001451</ECCENTRICITY><INCLINATION>44.9928</INCLINATION><RA_OF_ASC_NODE>211.8025</RA_OF_ASC_NODE><ARG_OF_PERICENTER>197.0006</ARG_OF_PERICENTER><MEAN_ANOMALY>163.0792</MEAN_ANOMALY></meanElements><tleParameters><EPHEMERIS_TYPE>0</EPHEMERIS_TYPE><CLASSIFICATION_TYPE>U</CLASSIFICATION_TYPE><NORAD_CAT_ID>25413</NORAD_CAT_ID><ELEMENT_SET_NO>999</ELEMENT_SET_NO><REV_AT_EPOCH>37168</REV_AT_EPOCH><BSTAR>.21174E-2</BSTAR><MEAN_MOTION_DOT>.5849E-4</MEAN_MOTION_DOT><MEAN_MOTION_DDOT>0</MEAN_MOTION_DDOT></tleParameters></data></segment></body></omm>
<omm id="CCSDS_OMM_VERS" version="2.0">
<header><CREATION_DATE/><ORIGINATOR/></header><body><segment><metadata><OBJECT_NAME>ORBCOMM FM18</OBJECT_NAME><OBJECT_ID>1998-046B</OBJECT_ID><CENTER_NAME>EARTH</CENTER_NAME><REF_FRAME>TEME</REF_FRAME><TIME_SYSTEM>UTC</TIME_SYSTEM><MEAN_ELEMENT_THEORY>SGP4</MEAN_ELEMENT_THEORY></metadata><data><meanElements><EPOCH>2024-11-09T21:13:27.758784</EPOCH><MEAN_MOTION>14.37274674</MEAN_MOTION><ECCENTRICITY>.0004535</ECCENTRICITY><INCLINATION>44.9915</INCLINATION><RA_OF_ASC_NODE>134.9297</RA_OF_ASC_NODE><ARG_OF_PERICENTER>242.9001</ARG_OF_PERICENTER><MEAN_ANOMALY>117.1384</MEAN_ANOMALY></meanElements><tleParameters><EPHEMERIS_TYPE>0</EPHEMERIS_TYPE><CLASSIFICATION_TYPE>U</CLASSIFICATION_TYPE><NORAD_CAT_ID>25414</NORAD_CAT_ID><ELEMENT_SET_NO>999</ELEMENT_SET_NO><REV_AT_EPOCH>37268</REV_AT_EPOCH><BSTAR>.2518E-2</BSTAR><MEAN_MOTION_DOT>.7442E-4</MEAN_MOTION_DOT><MEAN_MOTION_DDOT>0</MEAN_MOTION_DDOT></tleParameters></data></segment></body></omm>
<omm id="CCSDS_OMM_VERS" version="2.0">
<header><CREATION_DATE/><ORIGINATOR/></header><body><segment><metadata><OBJECT_NAME>ORBCOMM FM19</OBJECT_NAME><OBJECT_ID>1998-046C</OBJECT_ID><CENTER_NAME>EARTH</CENTER_NAME><REF_FRAME>TEME</REF_FRAME><TIME_SYSTEM>UTC</TIME_SYSTEM><MEAN_ELEMENT_THEORY>SGP4</MEAN_ELEMENT_THEORY></metadata><data><meanElements><EPOCH>2024-11-10T12:04:12.283680</EPOCH><MEAN_MOTION>14.37109757</MEAN_MOTION><ECCENTRICITY>.0003509</ECCENTRICITY><INCLINATION>44.9922</INCLINATION><RA_OF_ASC_NODE>133.6640</RA_OF_ASC_NODE><ARG_OF_PERICENTER>233.7986</ARG_OF_PERICENTER><MEAN_ANOMALY>153.7790</MEAN_ANOMALY></meanElements><tleParameters><EPHEMERIS_TYPE>0</EPHEMERIS_TYPE><CLASSIFICATION_TYPE>U</CLASSIFICATION_TYPE><NORAD_CAT_ID>25415</NORAD_CAT_ID><ELEMENT_SET_NO>999</ELEMENT_SET_NO><REV_AT_EPOCH>37293</REV_AT_EPOCH><BSTAR>.22664E-2</BSTAR><MEAN_MOTION_DOT>.666E-4</MEAN_MOTION_DOT><MEAN_MOTION_DDOT>0</MEAN_MOTION_DDOT></tleParameters></data></segment></body></omm>

</ndm>
